*******************************************************************************
JPL/HORIZONS               123 Brunhild (A872 OB)          2023-Sep-04 11:04:31
Rec #:     123 (+COV) Soln.date: 2023-Aug-21_19:00:58   # obs: 6807 (1872-2023)
 
IAU76/J2000 helio. ecliptic osc. elements (au, days, deg., period=Julian yrs):
 
  EPOCH=  2456973.5 ! 2014-Nov-12.00 (TDB)         Residual RMS= .32315
   EC= .1183940074229156   QR= 2.376174066929218   TP= 2457164.1356135663
   OM= 307.8645510799882   W=  125.6341519984439   IN= 6.41966552576127
   A= 2.695278941994549    MA= 317.5377959342532   ADIST= 3.014383817059879
   PER= 4.42501            N= .222740144           ANGMOM= .028042581
   DAN= 2.85439            DDN= 2.48602            L= 73.66952910000001
   B= 5.2138894            MOID= 1.39763999        TP= 2015-May-21.6356135663
 
Asteroid physical parameters (km, seconds, rotational period in hours):
   GM= n.a.                RAD= 22.6045            ROTPER= 9.873
   H= 9.05                 G= .150                 B-V= .850
                           ALBEDO= .261            STYP= S

ASTEROID comments: 
1: soln ref.= JPL#57, OCC=0
2: source=ORB
*******************************************************************************


*******************************************************************************
Ephemeris / API_USER Mon Sep  4 11:04:31 2023 Pasadena, USA      / Horizons
*******************************************************************************
Target body name: 123 Brunhild (A872 OB)          {source: JPL#57}
Center body name: Solar System Barycenter (0)     {source: DE441}
Center-site name: BODY CENTER
*******************************************************************************
Start time      : A.D. 2023-Aug-12 00:00:00.0000 TDB
Stop  time      : A.D. 2023-Aug-13 00:00:00.0000 TDB
Step-size       : 2880 minutes
*******************************************************************************
Center geodetic : 0.0, 0.0, 0.0                   {E-lon(deg),Lat(deg),Alt(km)}
Center cylindric: 0.0, 0.0, 0.0                   {E-lon(deg),Dxy(km),Dz(km)}
Center radii    : (undefined)
Small perturbers: Yes                             {source: SB441-N16}
Output units    : KM-S
Calendar mode   : Mixed Julian/Gregorian
Output type     : GEOMETRIC cartesian states
Output format   : 2 (position and velocity)
Reference frame : Ecliptic of J2000.0
*******************************************************************************
Initial IAU76/J2000 heliocentric ecliptic osculating elements (au, days, deg.):
  EPOCH=  2456973.5 ! 2014-Nov-12.00 (TDB)         Residual RMS= .32315        
   EC= .1183940074229156   QR= 2.376174066929218   TP= 2457164.1356135663      
   OM= 307.8645510799882   W=  125.6341519984439   IN= 6.41966552576127        
  Equivalent ICRF heliocentric cartesian coordinates (au, au/d):
   X= 2.305944109550015E+00  Y= 6.946448915848621E-01  Z= 5.900585697442935E-01
  VX=-4.959566419095365E-03 VY= 9.261528665640667E-03 VZ= 4.303675607250035E-03
Asteroid physical parameters (km, seconds, rotational period in hours):        
   GM= n.a.                RAD= 22.6045            ROTPER= 9.873               
   H= 9.05                 G= .150                 B-V= .850                   
                           ALBEDO= .261            STYP= S                     
*******************************************************************************
JDTDB
   X     Y     Z
   VX    VY    VZ
*******************************************************************************
$$SOE
2460168.500000000 = A.D. 2023-Aug-12 00:00:00.0000 TDB 
 X = 3.658374325433943E+08 Y = 7.069166912192780E+07 Z = 3.754657384287515E+07
 VX=-5.653430261936092E+00 VY= 1.855012931799387E+01 VZ= 7.721732031887933E-01
$$EOE
*******************************************************************************
 
TIME

  Barycentric Dynamical Time ("TDB" or T_eph) output was requested. This
continuous coordinate time is equivalent to the relativistic proper time
of a clock at rest in a reference frame co-moving with the solar system
barycenter but outside the system's gravity well. It is the independent
variable in the solar system relativistic equations of motion.

  TDB runs at a uniform rate of one SI second per second and is independent
of irregularities in Earth's rotation.
 
CALENDAR SYSTEM

  Mixed calendar mode was active such that calendar dates after AD 1582-Oct-15
(if any) are in the modern Gregorian system. Dates prior to 1582-Oct-5 (if any)
are in the Julian calendar system, which is automatically extended for dates
prior to its adoption on 45-Jan-1 BC.  The Julian calendar is useful for
matching historical dates. The Gregorian calendar more accurately corresponds
to the Earth's orbital motion and seasons. A "Gregorian-only" calendar mode is
available if such physical events are the primary interest.

REFERENCE FRAME AND COORDINATES

  Ecliptic at the standard reference epoch

    Reference epoch: J2000.0
    X-Y plane: adopted Earth orbital plane at the reference epoch
               Note: IAU76 obliquity of 84381.448 arcseconds wrt ICRF X-Y plane
    X-axis   : ICRF
    Z-axis   : perpendicular to the X-Y plane in the directional (+ or -) sense
               of Earth's north pole at the reference epoch.

  Symbol meaning:

    JDTDB    Julian Day Number, Barycentric Dynamical Time
      X      X-component of position vector (km)
      Y      Y-component of position vector (km)
      Z      Z-component of position vector (km)
      VX     X-component of velocity vector (km/sec)                           
      VY     Y-component of velocity vector (km/sec)                           
      VZ     Z-component of velocity vector (km/sec)                           

ABERRATIONS AND CORRECTIONS

 Geometric state vectors have NO corrections or aberrations applied.

Computations by ...

    Solar System Dynamics Group, Horizons On-Line Ephemeris System
    4800 Oak Grove Drive, Jet Propulsion Laboratory
    Pasadena, CA  91109   USA

    General site: https://ssd.jpl.nasa.gov/
    Mailing list: https://ssd.jpl.nasa.gov/email_list.html
    System news : https://ssd.jpl.nasa.gov/horizons/news.html
    User Guide  : https://ssd.jpl.nasa.gov/horizons/manual.html
    Connect     : browser        https://ssd.jpl.nasa.gov/horizons/app.html#/x
                  API            https://ssd-api.jpl.nasa.gov/doc/horizons.html
                  command-line   telnet ssd.jpl.nasa.gov 6775
                  e-mail/batch   https://ssd.jpl.nasa.gov/ftp/ssd/hrzn_batch.txt
                  scripts        https://ssd.jpl.nasa.gov/ftp/ssd/SCRIPTS
    Author      : Jon.D.Giorgini@jpl.nasa.gov
*******************************************************************************
